[
    {
        "Altitude(m)": 554716.043834738,
        "Argument of Periapsis(deg)": 0.019868973332140504,
        "Eccentricity": 0.0,
        "Inclination(deg)": 53.0,
        "Latitude(deg)": 27.896331654338482,
        "Longitude(deg)": 90.9940834939377,
        "Mean Anomaly(deg)": 35.72937860273277,
        "RAAN(deg)": 169.97043010558406,
        "Satellite Name": "Starlink Shell 1 748",
        "Satellite Number": 748,
        "Semi-Major Axis(m)": 6931778.249405717,
        "Time(s)": 570
    },
    {
        "Altitude(m)": 554784.485253448,
        "Argument of Periapsis(deg)": 0.02021755181165174,
        "Eccentricity": 0.0,
        "Inclination(deg)": 53.0,
        "Latitude(deg)": 28.357224340613097,
        "Longitude(deg)": 91.43649024436178,
        "Mean Anomaly(deg)": 36.35620980628947,
        "RAAN(deg)": 169.96991133550657,
        "Satellite Name": "Starlink Shell 1 748",
        "Satellite Number": 748,
        "Semi-Major Axis(m)": 6931778.249405717,
        "Time(s)": 580
    },
    {
        "Altitude(m)": 554854.1799973048,
        "Argument of Periapsis(deg)": 0.020566130291162974,
        "Eccentricity": 0.0,
        "Inclination(deg)": 53.0,
        "Latitude(deg)": 28.816355855155848,
        "Longitude(deg)": 91.88308185003027,
        "Mean Anomaly(deg)": 36.98304100984618,
        "RAAN(deg)": 169.9693925654291,
        "Satellite Name": "Starlink Shell 1 748",
        "Satellite Number": 748,
        "Semi-Major Axis(m)": 6931778.249405717,
        "Time(s)": 590
    },
    {
        "Altitude(m)": 554925.0755493825,
        "Argument of Periapsis(deg)": 0.020914708770674213,
        "Eccentricity": 0.0,
        "Inclination(deg)": 53.0,
        "Latitude(deg)": 29.273677520284718,
        "Longitude(deg)": 92.33395932343366,
        "Mean Anomaly(deg)": 37.60987221340291,
        "RAAN(deg)": 169.96887379535164,
        "Satellite Name": "Starlink Shell 1 748",
        "Satellite Number": 748,
        "Semi-Major Axis(m)": 6931778.249405717,
        "Time(s)": 600
    },
    {
        "Altitude(m)": 554997.1189791908,
        "Argument of Periapsis(deg)": 0.021263287250185448,
        "Eccentricity": 0.0,
        "Inclination(deg)": 53.0,
        "Latitude(deg)": 29.729139571338653,
        "Longitude(deg)": 92.78922499624584,
        "Mean Anomaly(deg)": 38.23670341695963,
        "RAAN(deg)": 169.96835502527418,
        "Satellite Name": "Starlink Shell 1 748",
        "Satellite Number": 748,
        "Semi-Major Axis(m)": 6931778.249405717,
        "Time(s)": 610
    },
    {
        "Altitude(m)": 555070.256970707,
        "Argument of Periapsis(deg)": 0.021611865729696686,
        "Eccentricity": 0.0,
        "Inclination(deg)": 53.0,
        "Latitude(deg)": 30.182691125734205,
        "Longitude(deg)": 93.24898301676103,
        "Mean Anomaly(deg)": 38.86353462051635,
        "RAAN(deg)": 169.9678362551967,
        "Satellite Name": "Starlink Shell 1 748",
        "Satellite Number": 748,
        "Semi-Major Axis(m)": 6931778.249405717,
        "Time(s)": 620
    },
    {
        "Altitude(m)": 555144.4358505415,
        "Argument of Periapsis(deg)": 0.02196044420920792,
        "Eccentricity": 0.0,
        "Inclination(deg)": 53.0,
        "Latitude(deg)": 30.634280151620807,
        "Longitude(deg)": 93.71333816273234,
        "Mean Anomaly(deg)": 39.490365824073045,
        "RAAN(deg)": 169.96731748511922,
        "Satellite Name": "Starlink Shell 1 748",
        "Satellite Number": 748,
        "Semi-Major Axis(m)": 6931778.249405717,
        "Time(s)": 630
    },
    {
        "Altitude(m)": 555219.601616249,
        "Argument of Periapsis(deg)": 0.02230902268871916,
        "Eccentricity": 0.0,
        "Inclination(deg)": 53.0,
        "Latitude(deg)": 31.08385343616672,
        "Longitude(deg)": 94.1823971717435,
        "Mean Anomaly(deg)": 40.117197027629764,
        "RAAN(deg)": 169.96679871504173,
        "Satellite Name": "Starlink Shell 1 748",
        "Satellite Number": 748,
        "Semi-Major Axis(m)": 6931778.249405717,
        "Time(s)": 640
    },
    {
        "Altitude(m)": 555295.699964744,
        "Argument of Periapsis(deg)": 0.022657601168230398,
        "Eccentricity": 0.0,
        "Inclination(deg)": 53.0,
        "Latitude(deg)": 31.531356553512264,
        "Longitude(deg)": 94.65626754588081,
        "Mean Anomaly(deg)": 40.74402823118646,
        "RAAN(deg)": 169.96627994496427,
        "Satellite Name": "Starlink Shell 1 748",
        "Satellite Number": 748,
        "Semi-Major Axis(m)": 6931778.249405717,
        "Time(s)": 650
    },
    {
        "Altitude(m)": 555372.676320831,
        "Argument of Periapsis(deg)": 0.023006179647741636,
        "Eccentricity": 0.0,
        "Inclination(deg)": 53.0,
        "Latitude(deg)": 31.976733832432828,
        "Longitude(deg)": 95.1350580328016,
        "Mean Anomaly(deg)": 41.37085943474321,
        "RAAN(deg)": 169.9657611748868,
        "Satellite Name": "Starlink Shell 1 748",
        "Satellite Number": 748,
        "Semi-Major Axis(m)": 6931778.249405717,
        "Time(s)": 660
    },
    {
        "Altitude(m)": 555450.4758658132,
        "Argument of Periapsis(deg)": 0.023354758127252868,
        "Eccentricity": 0.0,
        "Inclination(deg)": 53.0,
        "Latitude(deg)": 32.41992832375808,
        "Longitude(deg)": 95.61887910187191,
        "Mean Anomaly(deg)": 41.99769063829991,
        "RAAN(deg)": 169.96524240480935,
        "Satellite Name": "Starlink Shell 1 748",
        "Satellite Number": 748,
        "Semi-Major Axis(m)": 6931778.249405717,
        "Time(s)": 670
    },
    {
        "Altitude(m)": 555529.0435662003,
        "Argument of Periapsis(deg)": 0.023703336606764106,
        "Eccentricity": 0.0,
        "Inclination(deg)": 53.0,
        "Latitude(deg)": 32.8608817676025,
        "Longitude(deg)": 96.10784190212641,
        "Mean Anomaly(deg)": 42.62452184185663,
        "RAAN(deg)": 169.96472363473185,
        "Satellite Name": "Starlink Shell 1 748",
        "Satellite Number": 748,
        "Semi-Major Axis(m)": 6931778.249405717,
        "Time(s)": 680
    },
    {
        "Altitude(m)": 555608.3242024422,
        "Argument of Periapsis(deg)": 0.024051915086275345,
        "Eccentricity": 0.0,
        "Inclination(deg)": 53.0,
        "Latitude(deg)": 33.299534560465496,
        "Longitude(deg)": 96.60205872740471,
        "Mean Anomaly(deg)": 43.251353045413346,
        "RAAN(deg)": 169.9642048646544,
        "Satellite Name": "Starlink Shell 1 748",
        "Satellite Number": 748,
        "Semi-Major Axis(m)": 6931778.249405717,
        "Time(s)": 690
    },
    {
        "Altitude(m)": 555688.2623977282,
        "Argument of Periapsis(deg)": 0.024400493565786583,
        "Eccentricity": 0.0,
        "Inclination(deg)": 53.0,
        "Latitude(deg)": 33.73582572226952,
        "Longitude(deg)": 97.10164347537837,
        "Mean Anomaly(deg)": 43.878184248970044,
        "RAAN(deg)": 169.9636860945769,
        "Satellite Name": "Starlink Shell 1 748",
        "Satellite Number": 748,
        "Semi-Major Axis(m)": 6931778.249405717,
        "Time(s)": 700
    },
    {
        "Altitude(m)": 555768.8026468294,
        "Argument of Periapsis(deg)": 0.024749072045297815,
        "Eccentricity": 0.0,
        "Inclination(deg)": 53.0,
        "Latitude(deg)": 34.169692863409686,
        "Longitude(deg)": 97.60671058715677,
        "Mean Anomaly(deg)": 44.505015452526784,
        "RAAN(deg)": 169.96316732449944,
        "Satellite Name": "Starlink Shell 1 748",
        "Satellite Number": 748,
        "Semi-Major Axis(m)": 6931778.249405717,
        "Time(s)": 710
    },
    {
        "Altitude(m)": 555849.8893449194,
        "Argument of Periapsis(deg)": 0.025097650524809053,
        "Eccentricity": 0.0,
        "Inclination(deg)": 53.0,
        "Latitude(deg)": 34.60107215189773,
        "Longitude(deg)": 98.11737549276921,
        "Mean Anomaly(deg)": 45.13184665608348,
        "RAAN(deg)": 169.96264855442197,
        "Satellite Name": "Starlink Shell 1 748",
        "Satellite Number": 748,
        "Semi-Major Axis(m)": 6931778.249405717,
        "Time(s)": 720
    },
    {
        "Altitude(m)": 555931.4668164473,
        "Argument of Periapsis(deg)": 0.02544622900432029,
        "Eccentricity": 0.0,
        "Inclination(deg)": 53.0,
        "Latitude(deg)": 35.02989828069104,
        "Longitude(deg)": 98.6337550491729,
        "Mean Anomaly(deg)": 45.75867785964021,
        "RAAN(deg)": 169.96212978434448,
        "Satellite Name": "Starlink Shell 1 748",
        "Satellite Number": 748,
        "Semi-Major Axis(m)": 6931778.249405717,
        "Time(s)": 730
    },
    {
        "Altitude(m)": 556013.4793439572,
        "Argument of Periapsis(deg)": 0.02579480748383153,
        "Eccentricity": 0.0,
        "Inclination(deg)": 53.0,
        "Latitude(deg)": 35.456104435306926,
        "Longitude(deg)": 99.15596645741688,
        "Mean Anomaly(deg)": 46.3855090631969,
        "RAAN(deg)": 169.96161101426702,
        "Satellite Name": "Starlink Shell 1 748",
        "Satellite Number": 748,
        "Semi-Major Axis(m)": 6931778.249405717,
        "Time(s)": 740
    },
    {
        "Altitude(m)": 556095.8711969078,
        "Argument of Periapsis(deg)": 0.026143385963342765,
        "Eccentricity": 0.0,
        "Inclination(deg)": 53.0,
        "Latitude(deg)": 35.87962226183179,
        "Longitude(deg)": 99.6841276841978,
        "Mean Anomaly(deg)": 47.012340266753625,
        "RAAN(deg)": 169.96109224418956,
        "Satellite Name": "Starlink Shell 1 748",
        "Satellite Number": 748,
        "Semi-Major Axis(m)": 6931778.249405717,
        "Time(s)": 750
    }
]